[
    {
        "Altitude(m)": 607897.6177065503,
        "Argument of Periapsis(deg)": 0.0,
        "Eccentricity": 0.0,
        "Inclination(deg)": 60.0,
        "Latitude(deg)": -14.292951837221704,
        "Longitude(deg)": 26.618782704490116,
        "Mean Anomaly(deg)": -16.363600000000037,
        "RAAN(deg)": 135.0,
        "Satellite Name": "Test1 615",
        "Satellite Number": 615,
        "Semi-Major Axis(m)": 6980739.136638005,
        "Time(s)": 0
    },
    {
        "Altitude(m)": 607750.8187926085,
        "Argument of Periapsis(deg)": 0.00010418945913296404,
        "Eccentricity": 0.0,
        "Inclination(deg)": 60.0,
        "Latitude(deg)": -13.75879268918628,
        "Longitude(deg)": 26.90585057905559,
        "Mean Anomaly(deg)": -15.743493854538185,
        "RAAN(deg)": 134.99957995086024,
        "Satellite Name": "Test1 615",
        "Satellite Number": 615,
        "Semi-Major Axis(m)": 6980739.136638005,
        "Time(s)": 10
    }
]